{
  "type": "FeatureCollection",
  "features": [
    {
      "type": "Feature",
      "properties": {
        "norad_id": 61183,
        "name": "GSAT0226 (GALILEO 31)",
        "group": "gnss",
        "lat": 51.481966912101186,
        "lon": -14.480842238796448,
        "alt_km": 23212.864099479204,
        "timestamp": "2025-12-20T22:39:10.873639+00:00",
        "meta_object_name": "GSAT0226 (GALILEO 31)",
        "meta_object_id": "2024-167B",
        "meta_epoch": "2025-12-20T15:24:14.830848",
        "meta_mean_motion": 1.70473754,
        "meta_eccentricity": 0.00011201,
        "meta_inclination": 55.2371,
        "meta_ra_of_asc_node": 226.2196,
        "meta_arg_of_pericenter": 107.1344,
        "meta_mean_anomaly": 175.3163,
        "meta_ephemeris_type": 0,
        "meta_classification_type": "U",
        "meta_norad_cat_id": 61183,
        "meta_element_set_no": 999,
        "meta_rev_at_epoch": 780,
        "meta_bstar": 0,
        "meta_mean_motion_dot": 7.2e-07,
        "meta_mean_motion_ddot": 0,
        "tle_line1": "1 61183U 24167B   25354.64183832  .00000072  00000+0  00000+0 0  9990",
        "tle_line2": "2 61183  55.2371 226.2196 0001120 107.1344 175.3163  1.70473754  7805"
      },
      "geometry": {
        "type": "Point",
        "coordinates": [
          -14.480842238796448,
          51.481966912101186
        ]
      }
    },
    {
      "type": "Feature",
      "properties": {
        "norad_id": 61186,
        "name": "BEIDOU-3 M25 (C47)",
        "group": "gnss",
        "lat": -12.394234450412736,
        "lon": 137.38292574310708,
        "alt_km": 21533.724590942064,
        "timestamp": "2025-12-20T22:39:10.873652+00:00",
        "meta_object_name": "BEIDOU-3 M25 (C47)",
        "meta_object_id": "2024-168B",
        "meta_epoch": "2025-12-20T04:50:33.841248",
        "meta_mean_motion": 1.86230266,
        "meta_eccentricity": 0.00054523,
        "meta_inclination": 54.6355,
        "meta_ra_of_asc_node": 308.462,
        "meta_arg_of_pericenter": 299.4821,
        "meta_mean_anomaly": 118.2458,
        "meta_ephemeris_type": 0,
        "meta_classification_type": "U",
        "meta_norad_cat_id": 61186,
        "meta_element_set_no": 999,
        "meta_rev_at_epoch": 845,
        "meta_bstar": 0,
        "meta_mean_motion_dot": -7.1e-07,
        "meta_mean_motion_ddot": 0,
        "tle_line1": "1 61186U 24168B   25354.20178057 -.00000071  00000+0  00000+0 0  9999",
        "tle_line2": "2 61186  54.6355 308.4620 0005452 299.4821 118.2458  1.86230266  8456"
      },
      "geometry": {
        "type": "Point",
        "coordinates": [
          137.38292574310708,
          -12.394234450412736
        ]
      }
    },
    {
      "type": "Feature",
      "properties": {
        "norad_id": 61187,
        "name": "BEIDOU-3 M27 (C49)",
        "group": "gnss",
        "lat": -23.898022941268312,
        "lon": -69.93035109469116,
        "alt_km": 21524.336525640654,
        "timestamp": "2025-12-20T22:39:10.873662+00:00",
        "meta_object_name": "BEIDOU-3 M27 (C49)",
        "meta_object_id": "2024-168C",
        "meta_epoch": "2025-12-20T01:43:20.217792",
        "meta_mean_motion": 1.8623042,
        "meta_eccentricity": 0.00025185,
        "meta_inclination": 54.631,
        "meta_ra_of_asc_node": 308.4501,
        "meta_arg_of_pericenter": 339.7234,
        "meta_mean_anomaly": 125.7801,
        "meta_ephemeris_type": 0,
        "meta_classification_type": "U",
        "meta_norad_cat_id": 61187,
        "meta_element_set_no": 999,
        "meta_rev_at_epoch": 592,
        "meta_bstar": 0,
        "meta_mean_motion_dot": -7.2e-07,
        "meta_mean_motion_ddot": 0,
        "tle_line1": "1 61187U 24168C   25354.07176178 -.00000072  00000+0  00000+0 0  9998",
        "tle_line2": "2 61187  54.6310 308.4501 0002518 339.7234 125.7801  1.86230420  5928"
      },
      "geometry": {
        "type": "Point",
        "coordinates": [
          -69.93035109469116,
          -23.898022941268312
        ]
      }
    },
    {
      "type": "Feature",
      "properties": {
        "norad_id": 62339,
        "name": "GPS BIII-7  (PRN 01)",
        "group": "gnss",
        "lat": 47.69460657799495,
        "lon": 31.93456575858473,
        "alt_km": 20169.767049716553,
        "timestamp": "2025-12-20T22:39:10.873676+00:00",
        "meta_object_name": "GPS BIII-7  (PRN 01)",
        "meta_object_id": "2024-242A",
        "meta_epoch": "2025-12-18T08:46:28.895808",
        "meta_mean_motion": 2.00568182,
        "meta_eccentricity": 0.0012509,
        "meta_inclination": 54.922,
        "meta_ra_of_asc_node": 341.5124,
        "meta_arg_of_pericenter": 345.6877,
        "meta_mean_anomaly": 17.1618,
        "meta_ephemeris_type": 0,
        "meta_classification_type": "U",
        "meta_norad_cat_id": 62339,
        "meta_element_set_no": 999,
        "meta_rev_at_epoch": 763,
        "meta_bstar": 0,
        "meta_mean_motion_dot": -8.5e-07,
        "meta_mean_motion_ddot": 0,
        "tle_line1": "1 62339U 24242A   25352.36561222 -.00000085  00000+0  00000+0 0  9993",
        "tle_line2": "2 62339  54.9220 341.5124 0012509 345.6877  17.1618  2.00568182  7636"
      },
      "geometry": {
        "type": "Point",
        "coordinates": [
          31.93456575858473,
          47.69460657799495
        ]
      }
    },
    {
      "type": "Feature",
      "properties": {
        "norad_id": 62850,
        "name": "NVS-02 (IRNSS-1K)",
        "group": "gnss",
        "lat": -3.4346828875737856,
        "lon": 153.7086197013005,
        "alt_km": 29984.130346485017,
        "timestamp": "2025-12-20T22:39:10.873692+00:00",
        "meta_object_name": "NVS-02 (IRNSS-1K)",
        "meta_object_id": "2025-020A",
        "meta_epoch": "2025-12-20T08:38:20.194080",
        "meta_mean_motion": 2.17600288,
        "meta_eccentricity": 0.73473427,
        "meta_inclination": 20.9647,
        "meta_ra_of_asc_node": 324.9017,
        "meta_arg_of_pericenter": 31.1731,
        "meta_mean_anomaly": 356.6243,
        "meta_ephemeris_type": 0,
        "meta_classification_type": "U",
        "meta_norad_cat_id": 62850,
        "meta_element_set_no": 999,
        "meta_rev_at_epoch": 708,
        "meta_bstar": 0.00012417411,
        "meta_mean_motion_dot": 1.29e-06,
        "meta_mean_motion_ddot": 0,
        "tle_line1": "1 62850U 25020A   25354.35995595  .00000129  00000+0  12417-3 0  9998",
        "tle_line2": "2 62850  20.9647 324.9017 7347342  31.1731 356.6243  2.17600288  7081"
      },
      "geometry": {
        "type": "Point",
        "coordinates": [
          153.7086197013005,
          -3.4346828875737856
        ]
      }
    },
    {
      "type": "Feature",
      "properties": {
        "norad_id": 62876,
        "name": "QZS-6 (QZSS/PRN 200)",
        "group": "gnss",
        "lat": 0.055192074603982656,
        "lon": 160.0859255851756,
        "alt_km": 35788.98330234396,
        "timestamp": "2025-12-20T22:39:10.873705+00:00",
        "meta_object_name": "QZS-6 (QZSS/PRN 200)",
        "meta_object_id": "2025-023A",
        "meta_epoch": "2025-12-20T10:14:18.303072",
        "meta_mean_motion": 1.00272437,
        "meta_eccentricity": 0.00014847,
        "meta_inclination": 0.0492,
        "meta_ra_of_asc_node": 69.2799,
        "meta_arg_of_pericenter": 209.884,
        "meta_mean_anomaly": 54.2159,
        "meta_ephemeris_type": 0,
        "meta_classification_type": "U",
        "meta_norad_cat_id": 62876,
        "meta_element_set_no": 999,
        "meta_rev_at_epoch": 316,
        "meta_bstar": 0,
        "meta_mean_motion_dot": -2.1e-06,
        "meta_mean_motion_ddot": 0,
        "tle_line1": "1 62876U 25023A   25354.42660073 -.00000210  00000+0  00000+0 0  9990",
        "tle_line2": "2 62876   0.0492  69.2799 0001484 209.8840  54.2159  1.00272437  3168"
      },
      "geometry": {
        "type": "Point",
        "coordinates": [
          160.0859255851756,
          0.055192074603982656
        ]
      }
    },
    {
      "type": "Feature",
      "properties": {
        "norad_id": 63130,
        "name": "COSMOS 2584 (704K)",
        "group": "gnss",
        "lat": 64.82770687330063,
        "lon": 176.14430125669028,
        "alt_km": 19134.287197088845,
        "timestamp": "2025-12-20T22:39:10.873715+00:00",
        "meta_object_name": "COSMOS 2584 (704K)",
        "meta_object_id": "2025-042A",
        "meta_epoch": "2025-12-18T11:25:35.911776",
        "meta_mean_motion": 2.13103072,
        "meta_eccentricity": 0.00077091,
        "meta_inclination": 64.979,
        "meta_ra_of_asc_node": 78.9506,
        "meta_arg_of_pericenter": 218.5301,
        "meta_mean_anomaly": 141.4378,
        "meta_ephemeris_type": 0,
        "meta_classification_type": "U",
        "meta_norad_cat_id": 63130,
        "meta_element_set_no": 999,
        "meta_rev_at_epoch": 619,
        "meta_bstar": 0,
        "meta_mean_motion_dot": -3.8e-07,
        "meta_mean_motion_ddot": 0,
        "tle_line1": "1 63130U 25042A   25352.47611009 -.00000038  00000+0  00000+0 0  9991",
        "tle_line2": "2 63130  64.9790  78.9506 0007709 218.5301 141.4378  2.13103072  6191"
      },
      "geometry": {
        "type": "Point",
        "coordinates": [
          176.14430125669028,
          64.82770687330063
        ]
      }
    }
  ]
}